<?xml version="1.0" encoding="utf-16"?>
<kml:kml xmlns="http://www.opengis.net/kml/2.2" xmlns:gx="http://www.google.com/kml/ext/2.2" xmlns:kml="http://www.opengis.net/kml/2.2" xmlns:atom="http://www.w3.org/2005/Atom">
  <kml:Document>
    <kml:name>164-BlazerBuilding</kml:name>
    <kml:Style id="Completed">
      <kml:IconStyle>
        <kml:Icon></kml:Icon>
      </kml:IconStyle>
      <kml:LabelStyle>
        <kml:scale>0</kml:scale>
      </kml:LabelStyle>
      <kml:LineStyle>
        <kml:color>ff00ff00</kml:color>
        <kml:width>3</kml:width>
      </kml:LineStyle>
      <kml:PolyStyle>
        <kml:color>4800ff00</kml:color>
      </kml:PolyStyle>
    </kml:Style>
    <kml:Style id="Completed_hlt">
      <kml:IconStyle>
        <kml:Icon></kml:Icon>
      </kml:IconStyle>
      <kml:LineStyle>
        <kml:color>ff00ff00</kml:color>
        <kml:width>4</kml:width>
      </kml:LineStyle>
      <kml:PolyStyle>
        <kml:color>4800ff00</kml:color>
      </kml:PolyStyle>
    </kml:Style>
    <kml:StyleMap id="Completed_rollover">
      <kml:Pair>
        <kml:key>normal</kml:key>
        <kml:styleUrl>#Completed</kml:styleUrl>
      </kml:Pair>
      <kml:Pair>
        <kml:key>highlight</kml:key>
        <kml:styleUrl>#Completed_hlt</kml:styleUrl>
      </kml:Pair>
    </kml:StyleMap>
    <kml:Style id="InProgress">
      <kml:IconStyle>
        <kml:Icon></kml:Icon>
      </kml:IconStyle>
      <kml:LabelStyle>
        <kml:scale>0</kml:scale>
      </kml:LabelStyle>
      <kml:LineStyle>
        <kml:color>ffff0000</kml:color>
        <kml:width>3</kml:width>
      </kml:LineStyle>
      <kml:PolyStyle>
        <kml:color>4800ffff</kml:color>
      </kml:PolyStyle>
    </kml:Style>
    <kml:Style id="InProgress_hlt">
      <kml:IconStyle>
        <kml:Icon></kml:Icon>
      </kml:IconStyle>
      <kml:LineStyle>
        <kml:color>ffff0000</kml:color>
        <kml:width>4</kml:width>
      </kml:LineStyle>
      <kml:PolyStyle>
        <kml:color>4800ff00</kml:color>
      </kml:PolyStyle>
    </kml:Style>
    <kml:StyleMap id="InProgress_rollover">
      <kml:Pair>
        <kml:key>normal</kml:key>
        <kml:styleUrl>#InProgress</kml:styleUrl>
      </kml:Pair>
      <kml:Pair>
        <kml:key>highlight</kml:key>
        <kml:styleUrl>#InProgress_hlt</kml:styleUrl>
      </kml:Pair>
    </kml:StyleMap>
    <kml:Style id="NoPayment">
      <kml:IconStyle>
        <kml:Icon></kml:Icon>
      </kml:IconStyle>
      <kml:LabelStyle>
        <kml:scale>0</kml:scale>
      </kml:LabelStyle>
      <kml:LineStyle>
        <kml:color>ff0000ff</kml:color>
        <kml:width>3</kml:width>
      </kml:LineStyle>
      <kml:PolyStyle>
        <kml:color>48ff0000</kml:color>
      </kml:PolyStyle>
    </kml:Style>
    <kml:Style id="NoPayment_hlt">
      <kml:IconStyle>
        <kml:Icon></kml:Icon>
      </kml:IconStyle>
      <kml:LineStyle>
        <kml:color>ff0000ff</kml:color>
        <kml:width>4</kml:width>
      </kml:LineStyle>
      <kml:PolyStyle>
        <kml:color>4800ff00</kml:color>
      </kml:PolyStyle>
    </kml:Style>
    <kml:StyleMap id="NoPayment_rollover">
      <kml:Pair>
        <kml:key>normal</kml:key>
        <kml:styleUrl>#NoPayment</kml:styleUrl>
      </kml:Pair>
      <kml:Pair>
        <kml:key>highlight</kml:key>
        <kml:styleUrl>#NoPayment_hlt</kml:styleUrl>
      </kml:Pair>
    </kml:StyleMap>
    <kml:Folder>
      <kml:name>PRIME</kml:name>
    </kml:Folder>
    <kml:Folder>
      <kml:name>2024</kml:name>
      <kml:Placemark>
        <kml:name>164-24-0001 - Hartwood at Clarblak</kml:name>
        <kml:styleUrl>#Completed_rollover</kml:styleUrl>
        <kml:MultiGeometry>
          <kml:Point>
            <kml:coordinates>-95.52835512107717,29.82952251170692,0</kml:coordinates>
          </kml:Point>
          <kml:Polygon>
            <kml:outerBoundaryIs>
              <kml:LinearRing>
                <kml:coordinates>-95.52917481991425,29.829106640904197,0 -95.5291623944369,29.83009032516894,0 -95.52843432216652,29.83010045595235,0 -95.52843428157686,29.830093262390342,0 -95.52843429521785,29.83009181651533,0 -95.52843435244704,29.83009037145266,0 -95.52843445322485,29.830088928201057,0 -95.52843459748162,29.830087487758114,0 -95.52843478511767,29.83008605111937,0 -95.5284350160033,29.830084619277823,0 -95.52843528997892,29.830083193223086,0 -95.52843560685517,29.830081773940787,0 -95.52843596641304,29.83008036241191,0 -95.52843636840399,29.83007895961204,0 -95.52843681255021,29.830077566510788,0 -95.5284372985447,29.830076184070947,0 -95.52843782605156,29.830074813248096,0 -95.5284383947062,29.83007345498963,0 -95.52843900411555,29.830072110234354,0 -95.52843965385847,29.83007077991172,0 -95.52844034348581,29.83006946494124,0 -95.52844107252096,29.830068166231694,0 -95.52844184046003,29.83006688468077,0 -95.52844264677223,29.830065621174196,0 -95.52844349090029,29.83006437658531,0 -95.52844437226074,29.830063151774286,0 -95.52844529024443,29.8300619475877,0 -95.52844624421691,29.830060764857816,0 -95.52844723351878,29.830059604402116,0 -95.52844825746628,29.83005846702267,0 -95.5284493153517,29.830057353505573,0 -95.52845040644387,29.83005626462051,0 -95.52845152998863,29.83005520112,0 -95.52845268520946,29.830054163739145,0 -95.5284538713079,29.83005315319492,0 -95.52845508746415,29.830052170185837,0 -95.52845633283766,29.83005121539128,0 -95.52845760656766,29.830050289471124,0 -95.52845890777378,29.83004939306541,0 -95.5284602355567,29.830048526793625,0 -95.52846158899867,29.830047691254602,0 -95.52846296716423,29.830046887025784,0 -95.52846436910089,29.83004611466301,0 -95.52846579383963,29.830045374700106,0 -95.52846724039573,29.830044667648565,0 -95.5284687077694,29.830043993997027,0 -95.52847019494644,29.830043354211124,0 -95.52847170089892,29.83004274873303,0 -95.52847322458604,29.830042177981248,0 -95.52847476495462,29.83004164235026,0 -95.52847632094007,29.830041142210302,0 -95.5284778914669,29.83004067790697,0 -95.52847947544963,29.830040249761257,0 -95.52848107179348,29.830039858069078,0 -95.52848107179348,29.830039858069078,0 -95.52849597951838,29.830035802361945,0 -95.52851045294321,29.830030688722964,0 -95.52852439350103,29.83002455197706,0 -95.52853770625386,29.8300174339167,0 -95.52855030053925,29.830009383017355,0 -95.52856209058776,29.830000454107264,0 -95.52857299610697,29.82999070799412,0 -95.5285829428284,29.82998021105091,0 -95.52859186301318,29.829969034763856,0 -95.52859969591346,29.82995725524565,0 -95.52860638818608,29.829944952717156,0 -95.52861189425577,29.829932210960855,0 -95.52861617662563,29.829919116750585,0 -95.5286192061324,29.829905759260267,0 -95.52862096214507,29.829892229456934,0 -95.52862143270538,29.829878619480997,0 -95.52862061460925,29.829865022018748,0 -95.52861851342858,29.829851529671377,0 -95.52861514347326,29.829838234323997,0 -95.52861052769377,29.829825226520292,0 -95.5286046975248,29.829812594845524,0 -95.52859769267121,29.829800425323484,0 -95.52858956083757,29.82978880083063,0 -95.5285803574034,29.82977780053161,0 -95.52857014504583,29.829767499340218,0 -95.52855899331293,29.829757967409147,0 -95.52854697814993,29.829749269652314,0 -95.52853418138216,29.82974146530284,0 -95.52852069015766,29.829734607509423,0 -95.52850659635386,29.82972874297476,0 -95.5284919959517,29.829723911637142,0 -95.52847698838211,29.829720146398696,0 -95.52846167584889,29.829717472901248,0 -95.52844616263262,29.829715909351734,0 -95.52843055438053,29.829715466398124,0 -95.52841495738711,29.829716147057002,0 -95.5283994778701,29.829717946692995,0 -95.52838422124728,29.829720853050276,0 -95.52836929141847,29.829724846336184,0 -95.52835479005803,29.829729899355847,0 -95.52834081592242,29.829735977697403,0 -95.52832746417768,29.829743039966537,0 -95.5283148257513,29.829751038068032,0 -95.52830298671304,29.829759917533668,0 -95.52829202768882,29.829769617892946,0 -95.52828202331148,29.829780073084855,0 -95.52827304171274,29.829791211907963,0 -95.52826514405902,29.829802958505077,0 -95.52825838413503,29.829815232879966,0 -95.52825280797732,29.82982795144217,0 -95.52825280797732,29.82982795144217,0 -95.5274148539985,29.829839605181654,0 -95.52740585089515,29.82912603730994,0 -95.52917475815929,29.829101430254404,0 -95.52917481991425,29.829106640904197,0</kml:coordinates>
              </kml:LinearRing>
            </kml:outerBoundaryIs>
          </kml:Polygon>
        </kml:MultiGeometry>
      </kml:Placemark>
      <kml:Placemark>
        <kml:name>164-24-0002 - S. Hausman Champions Gate</kml:name>
        <kml:styleUrl>#Completed_rollover</kml:styleUrl>
        <kml:MultiGeometry>
          <kml:Point>
            <kml:coordinates>-98.65347956893369,29.561042119522966,0</kml:coordinates>
          </kml:Point>
          <kml:Polygon>
            <kml:outerBoundaryIs>
              <kml:LinearRing>
                <kml:coordinates>-98.65495923040778,29.561640851849834,0 -98.65494592428766,29.561633730417995,0 -98.65493252780936,29.56162673966737,0 -98.65491904265201,29.561619880474158,0 -98.65490547050578,29.56161315369806,0 -98.65489181307179,29.561606560182206,0 -98.65487807206182,29.56160010075301,0 -98.65486424919818,29.561593776220075,0 -98.65485034621337,29.561587587376064,0 -98.65483636484996,29.56158153499672,0 -98.65482230686034,29.56157561984063,0 -98.65480817400653,29.561569842649103,0 -98.65479396805989,29.561564204146347,0 -98.65477969080098,29.561558705038998,0 -98.65476534401925,29.561553346016293,0 -98.6547509295129,29.56154812774995,0 -98.65473644908859,29.561543050893995,0 -98.6547219045613,29.56153811608477,0 -98.65470729775397,29.561533323940722,0 -98.65469263049737,29.561528675062565,0 -98.65467790462988,29.561524170032907,0 -98.65466312199717,29.56151980941645,0 -98.65464828445208,29.561515593759662,0 -98.65463339385428,29.561511523591015,0 -98.65461845207012,29.561507599420576,0 -98.65460346097237,29.56150382174023,0 -98.65458842243994,29.561500191023423,0 -98.65457333835775,29.561496707725258,0 -98.65455821061636,29.56149337228228,0 -98.65454304111184,29.56149018511258,0 -98.65452783174548,29.561487146615576,0 -98.65451258442359,29.56148425717217,0 -98.6544973010572,29.56148151714447,0 -98.65448198356188,29.561478926875882,0 -98.65446663385748,29.561476486691113,0 -98.65445125386788,29.56147419689598,0 -98.65443584552074,29.561472057777504,0 -98.65442041074732,29.56147006960373,0 -98.65440495148212,29.56146823262391,0 -98.65438946966277,29.56146654706828,0 -98.65437396722972,29.561465013148098,0 -98.65435844612597,29.56146363105558,0 -98.65434290829687,29.561462400963965,0 -98.6543273556899,29.56146132302746,0 -98.65431179025435,29.5614603973812,0 -98.65429621394115,29.561459624141115,0 -98.65428062870257,29.561459003404185,0 -98.65426503649202,29.561458535248164,0 -98.65424943926375,29.561458219731765,0 -98.65423383897267,29.56145805689454,0 -98.65421823757407,29.561458046756833,0 -98.65421823757407,29.561458046756833,0 -98.65182940398273,29.56146816397381,0 -98.65183658322903,29.560613058272004,0 -98.65508043953983,29.56059956315301,0 -98.65508081724344,29.561359386311143,0 -98.65508080967702,29.561360796167385,0 -98.65508078557686,29.56136220588169,0 -98.65508074494552,29.561363615305886,0 -98.65508068778726,29.561365024291796,0 -98.65508061410809,29.561366432691273,0 -98.65508052391574,29.5613678403563,0 -98.65508041721971,29.56136924713884,0 -98.65508029403121,29.561370652891057,0 -98.65508015436319,29.56137205746516,0 -98.65507999823032,29.561373460713487,0 -98.65507982564904,29.5613748624885,0 -98.65507963663747,29.561376262642842,0 -98.65507943121546,29.561377661029347,0 -98.65507920940466,29.561379057500975,0 -98.65507897122833,29.561380451910942,0 -98.65507871671156,29.561381844112706,0 -98.65507844588106,29.561383233959805,0 -98.65507815876532,29.561384621306214,0 -98.65507785539454,29.561386006006042,0 -98.65507753580059,29.561387387913758,0 -98.65507720001706,29.56138876688405,0 -98.65507684807926,29.561390142771987,0 -98.65507648002419,29.561391515432916,0 -98.65507609589055,29.561392884722544,0 -98.6550756957187,29.561394250496875,0 -98.6550752795507,29.561395612612383,0 -98.65507484743034,29.561396970925884,0 -98.65507439940302,29.56139832529455,0 -98.65507393551584,29.561399675575974,0 -98.65507345581756,29.561401021628292,0 -98.65507296035862,29.56140236330993,0 -98.65507244919111,29.561403700479893,0 -98.65507192236875,29.561405032997545,0 -98.65507137994692,29.56140636072288,0 -98.65507082198266,29.56140768351621,0 -98.65507024853461,29.56140900123862,0 -98.65506965966307,29.561410313751498,0 -98.65506905542993,29.56141162091686,0 -98.65506843589871,29.561412922597324,0 -98.65506780113455,29.561414218656008,0 -98.65506715120418,29.561415508956706,0 -98.65506648617588,29.561416793363744,0 -98.65506580611964,29.561418071742132,0 -98.6550651111069,29.56141934395742,0 -98.6550644012107,29.561420609875924,0 -98.65506367650573,29.561421869364537,0 -98.65506293706812,29.56142312229087,0 -98.65506218297564,29.5614243685232,0 -98.65506141430755,29.561425607930477,0 -98.65506063114465,29.56142684038248,0 -98.65506063114465,29.56142684038248,0 -98.65494759859375,29.56160258927969,0 -98.65495923040778,29.561640851849834,0</kml:coordinates>
              </kml:LinearRing>
            </kml:outerBoundaryIs>
          </kml:Polygon>
        </kml:MultiGeometry>
      </kml:Placemark>
      <kml:Placemark>
        <kml:name>164-24-0003 - Becker Road Apt</kml:name>
        <kml:styleUrl>#Completed_rollover</kml:styleUrl>
        <kml:MultiGeometry>
          <kml:Point>
            <kml:coordinates>-95.8008975887432,30.013184033590154,0</kml:coordinates>
          </kml:Point>
          <kml:Polygon>
            <kml:outerBoundaryIs>
              <kml:LinearRing>
                <kml:coordinates>-95.80160226113728,30.01394852030882,0 -95.80160170752588,30.013893526733828,0 -95.80213882836026,30.013889430390062,0 -95.8025838598091,30.0127866120246,0 -95.80116747364175,30.012253787907884,0 -95.80107234306459,30.012443484603878,0 -95.79948000779108,30.012454465558264,0 -95.79949485019009,30.013964571706477,0 -95.79949485019009,30.013964571706477,0 -95.80160226113728,30.01394852030882,0</kml:coordinates>
              </kml:LinearRing>
            </kml:outerBoundaryIs>
          </kml:Polygon>
        </kml:MultiGeometry>
      </kml:Placemark>
      <kml:Placemark>
        <kml:name>164-24-0004 - Ariza Dripping Springs</kml:name>
        <kml:styleUrl>#Completed_rollover</kml:styleUrl>
        <kml:MultiGeometry>
          <kml:Point>
            <kml:coordinates>-98.00670151312538,30.19731805018189,0</kml:coordinates>
          </kml:Point>
          <kml:Polygon>
            <kml:outerBoundaryIs>
              <kml:LinearRing>
                <kml:coordinates>-98.00431079648449,30.19655667221725,0 -98.00549096395589,30.196541940338133,0 -98.00549710693595,30.196541825913652,0 -98.00550324993841,30.196541712399902,0 -98.00550939296308,30.1965415997969,0 -98.00551553600977,30.19654148810465,0 -98.0055216790783,30.19654137732311,0 -98.00552782216852,30.196541267452364,0 -98.00553396528022,30.196541158492323,0 -98.00554010841323,30.19654105044309,0 -98.0055462515674,30.1965409433046,0 -98.0055523947425,30.196540837076846,0 -98.00555853793837,30.19654073175991,0 -98.00556468115484,30.196540627353667,0 -98.00557082439174,30.196540523858253,0 -98.00557696764888,30.196540421273582,0 -98.00558311092607,30.196540319599716,0 -98.00558925422314,30.196540218836635,0 -98.00559539753992,30.196540118984316,0 -98.00560154087621,30.196540020042793,0 -98.00560768423186,30.19653992201206,0 -98.00561382760667,30.196539824892113,0 -98.00561997100046,30.196539728682993,0 -98.00562611441306,30.19653963338461,0 -98.0056322578443,30.196539538997072,0 -98.00563840129398,30.19653944552034,0 -98.00564454476195,30.196539352954368,0 -98.00565068824798,30.19653926129926,0 -98.00565683175193,30.19653917055495,0 -98.00566297527364,30.19653908072145,0 -98.00566911881289,30.19653899179877,0 -98.00567526236952,30.196538903786895,0 -98.00568140594335,30.196538816685838,0 -98.00568754953419,30.196538730495632,0 -98.00569369314188,30.196538645216233,0 -98.00569983676621,30.196538560847664,0 -98.00570598040703,30.196538477389947,0 -98.00571212406416,30.19653839484304,0 -98.00571826773742,30.196538313206997,0 -98.00572441142661,30.19653823248177,0 -98.00573055513159,30.19653815266738,0 -98.00573669885215,30.19653807376386,0 -98.0057428425881,30.196537995771152,0 -98.0057489863393,30.196537918689348,0 -98.00575513010553,30.19653784251834,0 -98.00576127388665,30.19653776725819,0 -98.00576741768246,30.19653769290892,0 -98.00577356149279,30.196537619470487,0 -98.00577970531744,30.196537546942935,0 -98.00578584915625,30.196537475326235,0 -98.00579199300904,30.196537404620383,0 -98.00579813687563,30.196537334825422,0 -98.00579813687563,30.196537334825422,0 -98.00586521241887,30.196537086540985,0 -98.00593228837808,30.196536946816096,0 -98.0059993645205,30.196536915651233,0 -98.00606644061337,30.19653699304655,0 -98.0061335164239,30.19653717900174,0 -98.00620059171929,30.196537473516127,0 -98.00626766626681,30.196537876588753,0 -98.00633473983365,30.196538388218197,0 -98.00640181218705,30.196539008402628,0 -98.00646888309426,30.19653973713997,0 -98.00653595232248,30.196540574427647,0 -98.006603019639,30.196541520262823,0 -98.00667008481105,30.196542574642113,0 -98.0067371476059,30.196543737561928,0 -98.00680420779081,30.19654500901821,0 -98.00687126513306,30.196546389006535,0 -98.00693831939992,30.196547877522143,0 -98.00700537035871,30.196549474559855,0 -98.00707241777673,30.19655118011413,0 -98.0071394614213,30.196552994178987,0 -98.00720650105977,30.19655491674826,0 -98.00727353645945,30.196556947815193,0 -98.00734056738774,30.196559087372716,0 -98.007407593612,30.19656133541345,0 -98.00747461489964,30.196563691929608,0 -98.00754163101804,30.196566156912947,0 -98.00760864173468,30.196568730354965,0 -98.00767564681695,30.196571412246712,0 -98.00774264603236,30.19657420257888,0 -98.00780963914836,30.19657710134179,0 -98.00787662593251,30.19658010852541,0 -98.0079436061523,30.19658322411925,0 -98.0080105795753,30.196586448112512,0 -98.00807754596907,30.196589780494026,0 -98.00814450510123,30.1965932212522,0 -98.0082114567394,30.196596770375137,0 -98.00827840065125,30.19660042785048,0 -98.00834533660444,30.19660419366555,0 -98.00841226436665,30.196608067807272,0 -98.00847918370566,30.196612050262214,0 -98.00854609438923,30.19661614101652,0 -98.00861299618512,30.196620340056064,0 -98.0086798888612,30.196624647366214,0 -98.00874677218529,30.196629062932022,0 -98.0088136459253,30.196633586738148,0 -98.00888050984915,30.196638218768975,0 -98.00894736372479,30.196642959008358,0 -98.0090142073202,30.19664780743987,0 -98.00908104040343,30.19665276404667,0 -98.00914786274251,30.196657828811556,0 -98.00914786274251,30.196657828811556,0 -98.00917844718268,30.19803036810216,0 -98.00435518451712,30.1981106296563,0 -98.0043377726263,30.197521050219,0 -98.00431079648449,30.19655667221725,0</kml:coordinates>
              </kml:LinearRing>
            </kml:outerBoundaryIs>
          </kml:Polygon>
        </kml:MultiGeometry>
      </kml:Placemark>
      <kml:Placemark>
        <kml:name>164-24-0005 - The Bluewood - Kerrville</kml:name>
        <kml:styleUrl>#Completed_rollover</kml:styleUrl>
        <kml:MultiGeometry>
          <kml:Point>
            <kml:coordinates>-101.6603721053932,40.860002715155474,0</kml:coordinates>
          </kml:Point>
          <kml:Polygon>
            <kml:outerBoundaryIs>
              <kml:LinearRing>
                <kml:coordinates>-101.66219684672542,40.86093172869512,0 -101.66218308646604,40.860933416636556,0 -101.66216934520224,40.86093519153669,0 -101.6621556238874,40.86093705327239,0 -101.66214192347347,40.86093900171451,0 -101.66212824491099,40.860941036727816,0 -101.66211458914897,40.860943158171175,0 -101.66210095713483,40.86094536589736,0 -101.66208734981434,40.86094765975321,0 -101.6620737681316,40.86095003957956,0 -101.66206021302888,40.86095250521135,0 -101.6620466854466,40.86095505647747,0 -101.66203318632333,40.860957693200916,0 -101.66201971659562,40.860960415198775,0 -101.66200627719799,40.86096322228217,0 -101.66199286906287,40.86096611425634,0 -101.66197949312048,40.86096909092068,0 -101.66196615029888,40.860972152068655,0 -101.66195284152374,40.86097529748784,0 -101.66193956771846,40.86097852696005,0 -101.66192632980393,40.8609818402612,0 -101.66191312869863,40.86098523716142,0 -101.66189996531843,40.86098871742507,0 -101.66188684057659,40.86099228081062,0 -101.66187375538371,40.86099592707089,0 -101.66186071064764,40.860999655952874,0 -101.66184770727342,40.86100346719789,0 -101.66183474616322,40.86100736054149,0 -101.66182182821626,40.86101133571357,0 -101.66180895432883,40.861015392438325,0 -101.66179612539408,40.86101953043431,0 -101.66178334230207,40.86102374941441,0 -101.66177060593974,40.8610280490859,0 -101.66175791719068,40.86103242915049,0 -101.66174527693529,40.861036889304295,0 -101.66173268605051,40.86104142923788,0 -101.66172014540992,40.86104604863623,0 -101.66170765588357,40.86105074717888,0 -101.661695218338,40.86105552453979,0 -101.66168283363614,40.86106038038757,0 -101.66167050263722,40.861065314385286,0 -101.66165822619676,40.86107032619063,0 -101.66164600516653,40.861075415455886,0 -101.66163384039443,40.861080581827935,0 -101.66162173272444,40.86108582494835,0 -101.66160968299658,40.86109114445335,0 -101.66159769204691,40.86109653997389,0 -101.66158576070733,40.86110201113562,0 -101.66157388980567,40.86110755755891,0 -101.66156208016551,40.861113178859,0 -101.66155033260623,40.86111887464583,0 -101.66155033260623,40.86111887464583,0 -101.66048658573321,40.86163937119185,0 -101.66046848102357,40.86164817286815,0 -101.66045030865875,40.86165689381279,0 -101.66043206926332,40.86166553372607,0 -101.66041376346413,40.861674092311006,0 -101.6603953918903,40.861682569273526,0 -101.66037695517322,40.86169096432224,0 -101.66035845394654,40.86169927716863,0 -101.66033988884612,40.861707507527,0 -101.66032126050999,40.861715655114494,0 -101.66030256957839,40.8617237196511,0 -101.66028381669366,40.86173170085962,0 -101.66026500250037,40.86173959846579,0 -101.66024612764507,40.86174741219817,0 -101.66022719277647,40.861755141788194,0 -101.66020819854536,40.86176278697023,0 -101.6601891456045,40.861770347481524,0 -101.66017003460874,40.861777823062226,0 -101.6601508662149,40.86178521345543,0 -101.66013164108175,40.86179251840711,0 -101.66011235987003,40.86179973766623,0 -101.66009302324241,40.861806870984665,0 -101.66007363186347,40.861813918117264,0 -101.66005418639966,40.86182087882182,0 -101.66003468751929,40.861827752859085,0 -101.66001513589252,40.861834539992856,0 -101.6599955321913,40.86184123998982,0 -101.65997587708941,40.86184785261976,0 -101.65995617126234,40.861854377655334,0 -101.65993641538736,40.861860814872365,0 -101.65991661014348,40.86186716404961,0 -101.65989675621137,40.8618734249688,0 -101.65987685427336,40.8618795974148,0 -101.6598569050135,40.86188568117545,0 -101.6598369091174,40.86189167604169,0 -101.6598168672723,40.86189758180743,0 -101.65979678016703,40.86190339826976,0 -101.65977664849194,40.86190912522875,0 -101.65975647293894,40.86191476248758,0 -101.65973625420146,40.86192030985249,0 -101.6597159929744,40.861925767132846,0 -101.65969568995409,40.861931134141074,0 -101.65967534583835,40.86193641069271,0 -101.65965496132638,40.86194159660643,0 -101.65963453711878,40.861946691703984,0 -101.65961407391751,40.861951695810276,0 -101.65959357242589,40.86195660875332,0 -101.65957303334851,40.86196143036424,0 -101.6595524573913,40.86196616047733,0 -101.65953184526144,40.86197079893007,0 -101.65951119766734,40.86197534556299,0 -101.65951119766734,40.86197534556299,0 -101.65945229082007,40.86181944675083,0 -101.65956148495496,40.861794247140494,0 -101.65948915790469,40.861638629206325,0 -101.65950519255179,40.86163468644763,0 -101.6595211999347,40.86163068034334,0 -101.65953717961928,40.86162661100213,0 -101.65955313117209,40.86162247853435,0 -101.65956905416049,40.8616182830521,0 -101.6595849481526,40.86161402466915,0 -101.65960081271731,40.861609703501045,0 -101.65961664742436,40.861605319664946,0 -101.65963245184423,40.86160087327977,0 -101.6596482255483,40.861596364466095,0 -101.65966396810872,40.86159179334624,0 -101.6596796790985,40.86158716004416,0 -101.65969535809153,40.86158246468553,0 -101.65971100466255,40.8615777073977,0 -101.65972661838718,40.86157288830972,0 -101.65974219884193,40.86156800755227,0 -101.65975774560421,40.86156306525773,0 -101.65977325825237,40.86155806156013,0 -101.65978873636564,40.86155299659525,0 -101.65980417952423,40.861547870500395,0 -101.65981958730926,40.86154268341462,0 -101.65983495930287,40.86153743547863,0 -101.65985029508809,40.86153212683474,0 -101.65986559424898,40.86152675762692,0 -101.6598808563706,40.861521328000826,0 -101.65989608103901,40.861515838103706,0 -101.65991126784124,40.86151028808448,0 -101.65992641636542,40.86150467809365,0 -101.65994152620068,40.86149900828339,0 -101.65995659693719,40.86149327880749,0 -101.6599716281662,40.86148748982132,0 -101.65998661948002,40.861481641481895,0 -101.66000157047206,40.861475733947856,0 -101.6600164807368,40.86146976737941,0 -101.66003134986985,40.8614637419384,0 -101.66004617746792,40.861457657788264,0 -101.66006096312884,40.861451515093954,0 -101.66007570645161,40.86144531402213,0 -101.66009040703632,40.861439054741005,0 -101.66010506448428,40.86143273742029,0 -101.66011967839796,40.861426362231335,0 -101.66013424838096,40.86141992934707,0 -101.66014877403815,40.861413438941966,0 -101.66016325497553,40.86140689119203,0 -101.66017769080034,40.86140028627488,0 -101.66019208112108,40.86139362436968,0 -101.66020642554744,40.861386905657085,0 -101.66022072369034,40.86138013031933,0 -101.66023497516204,40.86137329854015,0 -101.66024917957597,40.861366410504885,0 -101.66024917957597,40.861366410504885,0 -101.65980051747427,40.86029933273496,0 -101.65971006784005,40.860232388365496,0 -101.65970097961561,40.86010325716999,0 -101.65964308841167,40.86001891964099,0 -101.65979619444425,40.85985059251475,0 -101.65974745623487,40.859648422336,0 -101.65968262113707,40.859614429031176,0 -101.65964074807317,40.8594407344942,0 -101.6592520974359,40.85923696142888,0 -101.65919006459133,40.85930517873732,0 -101.65896741113788,40.859188438517236,0 -101.65902204598261,40.8591283875859,0 -101.65854773737765,40.85887969883931,0 -101.6585576713598,40.85887244730725,0 -101.65856765998956,40.858865239178385,0 -101.65857770293798,40.858858074690104,0 -101.65858779987425,40.85885095407833,0 -101.65859795046588,40.8588438775776,0 -101.6586081543785,40.85883684542099,0 -101.65861841127608,40.85882985784011,0 -101.65862872082079,40.858822915065055,0 -101.65863908267308,40.85881601732448,0 -101.65864949649166,40.858809164845596,0 -101.65865996193358,40.858802357854046,0 -101.65867047865414,40.85879559657407,0 -101.65868104630698,40.8587888812283,0 -101.65869166454405,40.858782212037895,0 -101.65870233301564,40.85877558922256,0 -101.65871305137034,40.85876901300037,0 -101.65872381925521,40.85876248358791,0 -101.65873463631557,40.85875600120024,0 -101.65874550219515,40.858749566050825,0 -101.6587564165361,40.85874317835165,0 -101.65876737897894,40.85873683831305,0 -101.65877838916263,40.85873054614386,0 -101.65878944672457,40.85872430205128,0 -101.65880055130056,40.858718106240985,0 -101.65881170252487,40.85871195891701,0 -101.65882290003023,40.858705860281816,0 -101.65883414344788,40.85869981053627,0 -101.65884543240749,40.85869380987961,0 -101.65885676653727,40.858687858509455,0 -101.65886814546393,40.858681956621844,0 -101.65887956881272,40.8586761044111,0 -101.65889103620741,40.858670302069996,0 -101.65890254727032,40.85866454978962,0 -101.65891410162233,40.85865884775946,0 -101.65892569888292,40.85865319616722,0 -101.65893733867011,40.858647595199116,0 -101.65894902060059,40.85864204503957,0 -101.65896074428959,40.85863654587138,0 -101.65897250935099,40.85863109787567,0 -101.65898431539733,40.858625701231844,0 -101.65899616203978,40.85862035611767,0 -101.65900804888817,40.858615062709156,0 -101.65901997555102,40.85860982118065,0 -101.65903194163552,40.85860463170477,0 -101.65904394674759,40.858599494452456,0 -101.65905599049184,40.858594409592875,0 -101.65906807247161,40.858589377293484,0 -101.65908019228901,40.85858439772003,0 -101.65909234954485,40.85857947103654,0 -101.65910454383877,40.858574597405216,0 -101.65910454383877,40.858574597405216,0 -101.65911571545334,40.8585702195809,0 -101.65912694646649,40.85856593026079,0 -101.65913823566196,40.858561729909404,0 -101.65914958181713,40.85855761898168,0 -101.65916098370329,40.85855359792276,0 -101.6591724400856,40.858549667168155,0 -101.6591839497234,40.85854582714351,0 -101.65919551137023,40.85854207826472,0 -101.659207123774,40.85853842093779,0 -101.6592187856771,40.85853485555879,0 -101.65923049581663,40.8585313825138,0 -101.65924225292439,40.85852800217899,0 -101.6592540557271,40.85852471492041,0 -101.65926590294663,40.858521521094076,0 -101.6592777932999,40.85851842104587,0 -101.65928972549926,40.85851541511151,0 -101.65930169825249,40.85851250361656,0 -101.65931371026298,40.858509686876275,0 -101.65932576022986,40.85850696519573,0 -101.65933784684817,40.85850433886968,0 -101.659349968809,40.858501808182524,0 -101.65936212479954,40.85849937340836,0 -101.65937431350339,40.858497034810846,0 -101.65938653360051,40.85849479264324,0 -101.65939878376754,40.85849264714839,0 -101.65941106267785,40.8584905985586,0 -101.65942336900163,40.85848864709578,0 -101.6594357014062,40.858486792971235,0 -101.65944805855598,40.85848503638576,0 -101.65946043911273,40.858483377529595,0 -101.65947284173573,40.85848181658239,0 -101.65948526508178,40.8584803537132,0 -101.65949770780551,40.85847898908043,0 -101.65951016855941,40.858477722831864,0 -101.65952264599402,40.85847655510465,0 -101.6595351387581,40.85847548602525,0 -101.65954764549873,40.85847451570943,0 -101.65956016486147,40.85847364426229,0 -101.65957269549054,40.85847287177818,0 -101.65958523602892,40.858472198340785,0 -101.65959778511849,40.858471624023,0 -101.65961034140028,40.85847114888707,0 -101.65962290351446,40.85847077298439,0 -101.65963547010062,40.85847049635572,0 -101.65964803979787,40.858470319031014,0 -101.65966061124493,40.85847024102944,0 -101.65967318308037,40.85847026235948,0 -101.65968575394274,40.858470383018805,0 -101.65969832247063,40.85847060299438,0 -101.65971088730292,40.85847092226233,0 -101.65971088730292,40.85847092226233,0 -101.65971896772943,40.858471169949816,0 -101.65972704700503,40.85847143840869,0 -101.65973512503713,40.85847172763594,0 -101.65974320173311,40.858472037628204,0 -101.65975127700035,40.85847236838193,0 -101.65975935074631,40.858472719893335,0 -101.6597674228784,40.85847309215839,0 -101.6597754933041,40.8584734851728,0 -101.65978356193087,40.858473898932104,0 -101.65979162866621,40.858474333431545,0 -101.65979969341764,40.85847478866612,0 -101.65980775609272,40.85847526463062,0 -101.65981581659898,40.8584757613196,0 -101.65982387484405,40.858476278727345,0 -101.65983193073554,40.85847681684795,0 -101.65983998418105,40.8584773756752,0 -101.6598480350883,40.85847795520276,0 -101.65985608336497,40.858478555423915,0 -101.6598641289188,40.85847917633185,0 -101.65987217165754,40.85847981791938,0 -101.659880211489,40.858480480179175,0 -101.659888248321,40.85848116310366,0 -101.65989628206141,40.85848186668498,0 -101.6599043126181,40.858482590915095,0 -101.65991233989902,40.85848333578571,0 -101.65992036381218,40.858484101288234,0 -101.65992838426553,40.858484887413894,0 -101.65993640116716,40.85848569415375,0 -101.65994441442514,40.85848652149849,0 -101.6599524239476,40.85848736943865,0 -101.65996042964272,40.858488237964494,0 -101.65996843141875,40.858489127066086,0 -101.6599764291839,40.85849003673321,0 -101.65998442284652,40.85849096695545,0 -101.65999241231495,40.858491917722134,0 -101.66000039749761,40.85849288902239,0 -101.66000837830293,40.85849388084505,0 -101.66001635463944,40.85849489317875,0 -101.66002432641568,40.8584959260119,0 -101.66003229354025,40.85849697933262,0 -101.66004025592183,40.85849805312889,0 -101.66004821346912,40.858499147388336,0 -101.66005616609091,40.85850026209847,0 -101.66006411369601,40.85850139724649,0 -101.6600720561933,40.85850255281937,0 -101.66007999349175,40.85850372880389,0 -101.66008792550036,40.85850492518651,0 -101.66009585212817,40.858506141953576,0 -101.6601037732843,40.85850737909112,0 -101.66011168887798,40.85850863658495,0 -101.66011168887798,40.85850863658495,0 -101.66013173212802,40.85851195189687,0 -101.66015171644439,40.8585154663159,0 -101.66017163839612,40.858519179238684,0 -101.66019149456287,40.85852309002772,0 -101.66021128153571,40.858527198011615,0 -101.6602309959175,40.85853150248507,0 -101.66025063432359,40.85853600270911,0 -101.66027019338237,40.85854069791106,0 -101.66028966973587,40.85854558728482,0 -101.66030906004029,40.858550669991004,0 -101.66032836096659,40.858555945156944,0 -101.66034756920112,40.85856141187698,0 -101.66036668144612,40.85856706921255,0 -101.6603856944203,40.85857291619236,0 -101.66040460485938,40.858578951812596,0 -101.66042340951678,40.85858517503698,0 -101.66044210516397,40.85859158479711,0 -101.66046068859119,40.858598179992526,0 -101.66047915660793,40.85860495949089,0 -101.66049750604351,40.858611922128276,0 -101.66051573374757,40.8586190667093,0 -101.6605338365907,40.85862639200733,0 -101.66055181146487,40.85863389676471,0 -101.66056965528404,40.85864157969299,0 -101.66058736498466,40.858649439473105,0 -101.66060493752623,40.85865747475564,0 -101.66062236989177,40.85866568416106,0 -101.66063965908837,40.85867406627989,0 -101.66065680214771,40.85868261967308,0 -101.66067379612653,40.858691342872106,0 -101.66069063810717,40.85870023437929,0 -101.66070732519809,40.85870929266813,0 -101.6607238545343,40.8587185161834,0 -101.66074022327793,40.85872790334156,0 -101.66075642861864,40.85873745253096,0 -101.6607724677742,40.85874716211214,0 -101.6607883379908,40.85875703041807,0 -101.66080403654375,40.85876705575454,0 -101.66081956073779,40.858777236400286,0 -101.66083490790754,40.85878757060745,0 -101.66085007541808,40.85879805660177,0 -101.66086506066529,40.85880869258292,0 -101.66087986107635,40.85881947672489,0 -101.6608944741102,40.85883040717615,0 -101.66090889725788,40.85884148206011,0 -101.6609231280431,40.858852699475335,0 -101.66093716402254,40.85886405749594,0 -101.66095100278635,40.858875554171895,0 -101.66096464195853,40.85888718752936,0 -101.66097807919735,40.858898955571064,0 -101.66097807919735,40.858898955571064,0 -101.66098248174134,40.85890289303874,0 -101.66098684448386,40.85890685596149,0 -101.66099116716958,40.85891084410744,0 -101.66099544954554,40.85891485724318,0 -101.66099969136113,40.85891889513381,0 -101.66100389236806,40.85892295754311,0 -101.66100805232053,40.85892704423326,0 -101.66101217097506,40.85893115496515,0 -101.66101624809062,40.85893528949821,0 -101.6610202834286,40.85893944759048,0 -101.66102427675287,40.858943628998595,0 -101.66102822782969,40.85894783347786,0 -101.66103213642783,40.858952060782265,0 -101.6610360023186,40.858956310664375,0 -101.66103982527571,40.85896058287549,0 -101.66104360507543,40.85896487716561,0 -101.66104734149657,40.85896919328339,0 -101.66105103432045,40.85897353097629,0 -101.66105468333099,40.85897788999045,0 -101.66105828831458,40.85898227007075,0 -101.66106184906027,40.858986670960874,0 -101.66106536535969,40.858991092403265,0 -101.66106883700705,40.85899553413919,0 -101.66107226379916,40.8589999959087,0 -101.66107564553546,40.85900447745069,0 -101.66107898201808,40.859008978502885,0 -101.66108227305172,40.85901349880191,0 -101.6610855184438,40.85901803808317,0 -101.66108871800438,40.859022596081054,0 -101.6610918715462,40.859027172528805,0 -101.66109497888472,40.85903176715863,0 -101.66109803983808,40.85903637970164,0 -101.66110105422712,40.859041009887854,0 -101.66110402187546,40.85904565744635,0 -101.6611069426094,40.85905032210514,0 -101.661109816258,40.85905500359122,0 -101.66111264265311,40.859059701630656,0 -101.66111542162929,40.85906441594848,0 -101.66111815302392,40.85906914626881,0 -101.66112083667713,40.85907389231481,0 -101.66112347243185,40.85907865380876,0 -101.66112606013387,40.85908343047197,0 -101.6611285996317,40.85908822202494,0 -101.66113109077673,40.85909302818724,0 -101.66113353342318,40.85909784867758,0 -101.66113592742809,40.85910268321392,0 -101.66113827265131,40.859107531513295,0 -101.66114056895566,40.859112393291966,0 -101.66114281620668,40.85911726826542,0 -101.66114501427286,40.85912215614836,0 -101.66114501427286,40.85912215614836,0 -101.66114653569716,40.85912569581298,0 -101.66114796591204,40.85912925733132,0 -101.66114930437347,40.85913283934874,0 -101.66115055057236,40.85913644050279,0 -101.66115170403471,40.859140059423744,0 -101.66115276432177,40.85914369473514,0 -101.66115373103023,40.85914734505423,0 -101.6611546037924,40.85915100899259,0 -101.6611553822763,40.85915468515667,0 -101.66115606618582,40.85915837214817,0 -101.66115665526081,40.859162068564714,0 -101.6611571492772,40.85916577300038,0 -101.66115754804709,40.85916948404613,0 -101.66115785141876,40.859173200290435,0 -101.66115805927686,40.85917692031979,0 -101.66115817154227,40.859180642719316,0 -101.6611581881723,40.85918436607311,0 -101.6611581091606,40.85918808896496,0 -101.66115793453721,40.859191809978924,0 -101.66115766436855,40.85919552769958,0 -101.66115729875736,40.85919924071294,0 -101.66115683784268,40.859202947606704,0 -101.66115628179982,40.85920664697091,0 -101.66115563084027,40.859210337398515,0 -101.6611548852116,40.859214017485805,0 -101.66115404519742,40.85921768583306,0 -101.66115311111722,40.85922134104495,0 -101.66115208332624,40.859224981731245,0 -101.66115096221544,40.859228606507166,0 -101.6611497482112,40.85923221399396,0 -101.66114844177528,40.85923580281954,0 -101.6611470434046,40.859239371618855,0 -101.661145553631,40.859242919034486,0 -101.66114397302111,40.859246443717154,0 -101.66114230217616,40.85924994432618,0 -101.66114054173161,40.85925341953013,0 -101.66113869235706,40.85925686800713,0 -101.66113675475594,40.859260288445576,0 -101.66113472966522,40.859263679544455,0 -101.66113261785513,40.85926704001393,0 -101.66113042012894,40.859270368575814,0 -101.66112813732252,40.859273663964096,0 -101.66112577030417,40.859276924925304,0 -101.66112331997418,40.85928015021913,0 -101.66112078726457,40.85928333861882,0 -101.66111817313865,40.859286488911614,0 -101.66111547859073,40.859289599899284,0 -101.66111270464567,40.85929267039854,0 -101.66110985235859,40.85929569924146,0 -101.66110692281434,40.85929868527606,0 -101.66110692281434,40.85929868527606,0 -101.66110401846872,40.85930164462578,0 -101.66110118940982,40.85930464572048,0 -101.66109843667826,40.859307687456166,0 -101.66109576128659,40.85931076871406,0 -101.66109316421894,40.85931388836075,0 -101.66109064643058,40.85931704524873,0 -101.66108820884766,40.859320238216775,0 -101.66108585236682,40.85932346609041,0 -101.66108357785487,40.859326727682294,0 -101.66108138614842,40.85933002179274,0 -101.6610792780537,40.859333347210026,0 -101.66107725434614,40.85933670271097,0 -101.66107531577013,40.859340087061284,0 -101.66107346303878,40.85934349901612,0 -101.66107169683359,40.859346937320424,0 -101.66107001780422,40.85935040070947,0 -101.66106842656829,40.85935388790929,0 -101.66106692371115,40.859357397637204,0 -101.66106550978557,40.8593609286022,0 -101.66106418531169,40.859364479505444,0 -101.66106295077668,40.85936804904081,0 -101.66106180663469,40.859371635895315,0 -101.66106075330656,40.85937523874954,0 -101.66105979117975,40.85937885627832,0 -101.66105892060818,40.85938248715091,0 -101.6610581419121,40.85938613003179,0 -101.66105745537793,40.85938978358098,0 -101.66105686125825,40.85939344645458,0 -101.66105635977156,40.85939711730525,0 -101.66105595110238,40.85940079478273,0 -101.66105563540104,40.8594044775343,0 -101.66105541278364,40.85940816420534,0 -101.66105528333212,40.85941185343975,0 -101.6610552470941,40.85941554388049,0 -101.6610553040829,40.85941923417009,0 -101.66105545427759,40.85942292295117,0 -101.66105569762294,40.85942660886681,0 -101.66105603402943,40.85943029056123,0 -101.66105646337336,40.85943396668019,0 -101.66105698549678,40.85943763587144,0 -101.66105760020767,40.859441296785356,0 -101.66105830727993,40.859444948075335,0 -101.66105910645346,40.85944858839825,0 -101.66105999743434,40.85945221641512,0 -101.66106097989483,40.8594558307914,0 -101.66106205347356,40.85945943019758,0 -101.66106321777565,40.85946301330974,0 -101.66106447237283,40.859466578809815,0 -101.66106581680361,40.8594701253863,0 -101.66106725057351,40.85947365173467,0 -101.66106725057351,40.85947365173467,0 -101.66166173675522,40.860887506326655,0 -101.66167146279594,40.860884100880305,0 -101.66168121413797,40.86088073739927,0 -101.66169099046718,40.860877415991894,0 -101.66170079146865,40.86087413676521,0 -101.66171061682664,40.86087089982487,0 -101.66172046622464,40.860867705275055,0 -101.66173033934535,40.86086455321877,0 -101.66174023587075,40.860861443757514,0 -101.66175015548201,40.860858376991466,0 -101.66176009785958,40.860855353019424,0 -101.66177006268319,40.86085237193878,0 -101.66178004963183,40.86084943384557,0 -101.66179005838377,40.86084653883448,0 -101.6618000886166,40.86084368699871,0 -101.66181014000722,40.86084087843018,0 -101.66182021223182,40.86083811321937,0 -101.66183030496593,40.86083539145531,0 -101.66184041788442,40.8608327132257,0 -101.66185055066155,40.86083007861682,0 -101.66186070297088,40.86082748771356,0 -101.66187087448537,40.86082494059934,0 -101.66188106487735,40.86082243735628,0 -101.66189127381854,40.86081997806496,0 -101.66190150098011,40.860817562804606,0 -101.66191174603257,40.860815191653046,0 -101.6619220086459,40.86081286468667,0 -101.6619322884895,40.860810581980424,0 -101.66194258523223,40.860808343607836,0 -101.66195289854237,40.860806149641036,0 -101.66196322808771,40.86080400015068,0 -101.66197357353549,40.86080189520601,0 -101.66198393455245,40.860799834874875,0 -101.66199431080481,40.860797819223585,0 -101.66200470195835,40.86079584831712,0 -101.66201510767829,40.86079392221893,0 -101.66202552762944,40.86079204099113,0 -101.66203596147612,40.86079020469424,0 -101.66204640888225,40.86078841338747,0 -101.66205686951126,40.8607866671285,0 -101.66206734302617,40.8607849659736,0 -101.66207782908961,40.86078330997756,0 -101.66208832736376,40.86078169919371,0 -101.66209883751047,40.860780133673984,0 -101.66210935919112,40.860778613468774,0 -101.66211989206681,40.860777138627085,0 -101.66213043579823,40.860775709196396,0 -101.66214099004573,40.860774325222756,0 -101.66215155446929,40.86077298675078,0 -101.66216212872862,40.860771693823565,0 -101.66217271248308,40.860770446482746,0 -101.66217271248308,40.860770446482746,0 -101.66217044316798,40.86077347210175,0 -101.66216827719454,40.86077654107032,0 -101.66216621599833,40.860779651354356,0 -101.66216426094556,40.860782800892345,0 -101.66216241333206,40.86078598759678,0 -101.66216067438242,40.86078920935555,0 -101.66215904524921,40.8607924640332,0 -101.66215752701228,40.86079574947258,0 -101.66215612067789,40.8607990634961,0 -101.6621548271782,40.8608024039072,0 -101.66215364737053,40.86080576849186,0 -101.6621525820369,40.86080915502002,0 -101.6621516318834,40.860812561247116,0 -101.66215079753982,40.860815984915476,0 -101.66215007955917,40.860819423755885,0 -101.66214947841736,40.8608228754891,0 -101.66214899451283,40.86082633782728,0 -101.66214862816632,40.86082980847561,0 -101.66214837962067,40.86083328513372,0 -101.66214824904061,40.8608367654973,0 -101.66214823651275,40.86084024725952,0 -101.66214834204536,40.86084372811273,0 -101.66214856556853,40.86084720574973,0 -101.6621489069341,40.86085067786563,0 -101.66214936591587,40.86085414215902,0 -101.66214994220961,40.86085759633382,0 -101.66215063543336,40.86086103810056,0 -101.66215144512769,40.860864465178075,0 -101.66215237075593,40.86086787529486,0 -101.66215341170458,40.86087126619068,0 -101.66215456728374,40.86087463561807,0 -101.66215583672748,40.86087798134374,0 -101.66215721919441,40.86088130115016,0 -101.66215871376828,40.86088459283694,0 -101.66216031945845,40.86088785422233,0 -101.66216203520071,40.86089108314469,0 -101.66216385985787,40.860894277463906,0 -101.66216579222056,40.860897435062746,0 -101.66216783100799,40.86090055384837,0 -101.66216997486889,40.8609036317536,0 -101.6621722223823,40.86090666673845,0 -101.66217457205856,40.86090965679129,0 -101.66217702234033,40.860912599930295,0 -101.66217957160355,40.8609154942048,0 -101.66218221815859,40.86091833769638,0 -101.6621849602513,40.86092112852045,0 -101.66218779606422,40.8609238648272,0 -101.66219072371779,40.86092654480301,0 -101.66219374127154,40.86092916667158,0 -101.66219684672542,40.86093172869512,0 -101.66219684672542,40.86093172869512,0 -101.66219684672542,40.86093172869512,0</kml:coordinates>
              </kml:LinearRing>
            </kml:outerBoundaryIs>
          </kml:Polygon>
        </kml:MultiGeometry>
      </kml:Placemark>
    </kml:Folder>
    <kml:Folder>
      <kml:name>2025</kml:name>
      <kml:Placemark>
        <kml:name>164-25-0006 - Park on Wurzbach II</kml:name>
        <kml:styleUrl>#Completed_rollover</kml:styleUrl>
        <kml:MultiGeometry>
          <kml:Point>
            <kml:coordinates>-98.61601332607492,29.478515168841536,0</kml:coordinates>
          </kml:Point>
          <kml:Polygon>
            <kml:outerBoundaryIs>
              <kml:LinearRing>
                <kml:coordinates>-98.61399746306647,29.479319730859746,0 -98.61641081946945,29.477137612910724,0 -98.61774173848937,29.478265472449014,0 -98.61608517794406,29.479547339475374,0 -98.61603306301129,29.479532085064207,0 -98.6159384775352,29.47950547326826,0 -98.61592583764283,29.47950196448087,0 -98.61591317472366,29.479498519844853,0 -98.61590048920299,29.47949513947585,0 -98.61588778150681,29.479491823487447,0 -98.61587505206191,29.47948857199097,0 -98.6158623012958,29.47948538509561,0 -98.61584952963669,29.479482262908384,0 -98.61583673751349,29.479479205534187,0 -98.61582392535583,29.479476213075664,0 -98.61581109359398,29.47947328563333,0 -98.6157982426589,29.479470423305482,0 -98.61578537298212,29.47946762618827,0 -98.6157724849959,29.479464894375617,0 -98.61575957913306,29.479462227959274,0 -98.61574665582701,29.47945962702877,0 -98.61573371551178,29.479457091671467,0 -98.61572075862193,29.479454621972526,0 -98.61570778559263,29.47945221801488,0 -98.61569479685954,29.479449879879247,0 -98.6156817928589,29.479447607644175,0 -98.61566877402738,29.47944540138595,0 -98.61565574080227,29.479443261178726,0 -98.61564269362121,29.47944118709428,0 -98.6156296329224,29.47943917920231,0 -98.61561655914447,29.479437237570238,0 -98.61560347272648,29.479435362263356,0 -98.61559037410791,29.479433553344535,0 -98.61557726372868,29.47943181087458,0 -98.61556414202907,29.47943013491199,0 -98.61555100944976,29.479428525513082,0 -98.61553786643178,29.47942698273183,0 -98.61552471341653,29.47942550662014,0 -98.61551155084574,29.4794240972275,0 -98.61549837916145,29.47942275460132,0 -98.61548519880601,29.47942147878663,0 -98.61547201022206,29.479420269826313,0 -98.61545881385254,29.479419127760938,0 -98.61544561014061,29.479418052628898,0 -98.61543239952971,29.479417044466295,0 -98.61541918246351,29.479416103306963,0 -98.61540595938587,29.479415229182514,0 -98.61539273074085,29.47941442212231,0 -98.61537949697276,29.479413682153446,0 -98.61536625852602,29.479413009300817,0 -98.61535301584522,29.47941240358691,0 -98.61533976937508,29.479411865032215,0 -98.6153265195605,29.47941139365471,0 -98.61531326684643,29.47941098947028,0 -98.61530001167795,29.479410652492465,0 -98.6152867545002,29.479410382732603,0 -98.6152867545002,29.479410382732603,0 -98.61456373553202,29.47939718893859,0 -98.61455224008311,29.47939696674793,0 -98.61454074618196,29.479396689963448,0 -98.61452925416725,29.479396358593306,0 -98.6145177643776,29.47939597264727,0 -98.61450627715155,29.47939553213669,0 -98.61449479282754,29.479395037074568,0 -98.61448331174401,29.479394487475457,0 -98.6144718342392,29.479393883355588,0 -98.61446036065131,29.479393224732743,0 -98.6144488913184,29.47939251162634,0 -98.61443742657842,29.479391744057352,0 -98.61442596676916,29.479390922048466,0 -98.61441451222832,29.47939004562382,0 -98.61440306329335,29.479389114809315,0 -98.61439162030163,29.47938812963232,0 -98.61438018359031,29.479387090121907,0 -98.61436875349636,29.47938599630865,0 -98.61435733035658,29.479384848224857,0 -98.61434591450757,29.479383645904253,0 -98.61433450628564,29.479382389382348,0 -98.61432310602697,29.47938107869613,0 -98.61431171406747,29.47937971388421,0 -98.6143003307428,29.47937829498684,0 -98.61428895638834,29.47937682204581,0 -98.61427759133923,29.479375295104486,0 -98.61426623593039,29.479373714207924,0 -98.61425489049634,29.479372079402633,0 -98.61424355537142,29.479370390736836,0 -98.61423223088958,29.479368648260266,0 -98.61422091738453,29.479366852024263,0 -98.61420961518958,29.479365002081757,0 -98.61419832463777,29.479363098487266,0 -98.61418704606176,29.479361141296884,0 -98.61417577979388,29.479359130568227,0 -98.61416452616608,29.47935706636062,0 -98.61415328550996,29.479354948734805,0 -98.6141420581567,29.479352777753224,0 -98.61413084443713,29.479350553479843,0 -98.61411964468162,29.47934827598021,0 -98.61410845922022,29.479345945321388,0 -98.61409728838247,29.479343561572076,0 -98.61408613249753,29.479341124802524,0 -98.6140749918941,29.479338635084478,0 -98.61406386690042,29.479336092491383,0 -98.61405275784432,29.47933349709807,0 -98.6140416650531,29.479330848981068,0 -98.61403058885358,29.479328148218396,0 -98.61401952957216,29.479325394889578,0 -98.61400848753468,29.47932258907582,0 -98.61399746306647,29.479319730859746,0 -98.61399746306647,29.479319730859746,0 -98.61399746306647,29.479319730859746,0</kml:coordinates>
              </kml:LinearRing>
            </kml:outerBoundaryIs>
          </kml:Polygon>
        </kml:MultiGeometry>
      </kml:Placemark>
      <kml:Placemark>
        <kml:name>164-25-0007 - The Alcove at Benders Landing</kml:name>
        <kml:styleUrl>#Completed_rollover</kml:styleUrl>
        <kml:MultiGeometry>
          <kml:Point>
            <kml:coordinates>-95.3975823391336,30.106835941995662,0</kml:coordinates>
          </kml:Point>
          <kml:Polygon>
            <kml:outerBoundaryIs>
              <kml:LinearRing>
                <kml:coordinates>-95.39538222774848,30.10598859863575,0 -95.39437193180358,30.105453153183625,0 -95.39510431646856,30.10471153535165,0 -95.40114648295851,30.108652750579854,0 -95.40117119171268,30.109249622511673,0 -95.39586830325479,30.106439419534222,0 -95.39538222774848,30.10598859863575,0</kml:coordinates>
              </kml:LinearRing>
            </kml:outerBoundaryIs>
          </kml:Polygon>
        </kml:MultiGeometry>
      </kml:Placemark>
    </kml:Folder>
    <kml:Folder>
      <kml:name>2026</kml:name>
    </kml:Folder>
  </kml:Document>
</kml:kml>