<?xml version="1.0" encoding="utf-16"?>
<kml xmlns="http://www.opengis.net/kml/2.2">
  <Document>
    <name>51-Texas Gas Services</name>
    <Style id="Submitted">
      <IconStyle>
        <Icon></Icon>
      </IconStyle>
      <LabelStyle>
        <scale>0</scale>
      </LabelStyle>
      <LineStyle>
        <color>ff0000ff</color>
        <width>3</width>
      </LineStyle>
      <PolyStyle>
        <color>4800ff00</color>
      </PolyStyle>
    </Style>
    <Style id="Submitted_hlt">
      <IconStyle>
        <Icon></Icon>
      </IconStyle>
      <LineStyle>
        <color>ff0000ff</color>
        <width>4</width>
      </LineStyle>
      <PolyStyle>
        <color>4800ff00</color>
      </PolyStyle>
    </Style>
    <StyleMap id="Submitted_rollover">
      <Pair>
        <key>normal</key>
        <styleUrl>#Submitted</styleUrl>
      </Pair>
      <Pair>
        <key>highlight</key>
        <styleUrl>#Submitted_hlt</styleUrl>
      </Pair>
    </StyleMap>
    <Folder>
      <name>PRIME</name>
    </Folder>
    <Folder>
      <name>2024</name>
    </Folder>
    <Folder>
      <name>2025</name>
    </Folder>
    <Folder>
      <name>2026</name>
      <Placemark>
        <name>51-26-0041 - 5760 Mockingbird Lane - Groves</name>
        <styleUrl>#Submitted_rollover</styleUrl>
        <MultiGeometry>
          <Point>
            <coordinates>-93.93815446425808,29.95415143457253,0</coordinates>
          </Point>
          <Polygon>
            <outerBoundaryIs>
              <LinearRing>
                <coordinates>-93.93826625165377,29.954337171484113,0 -93.93792350219096,29.95409373148314,0 -93.93804267726921,29.953965697555752,0 -93.93838542658635,29.95420913726333,0 -93.93826625165377,29.954337171484113,0</coordinates>
              </LinearRing>
            </outerBoundaryIs>
          </Polygon>
        </MultiGeometry>
      </Placemark>
    </Folder>
  </Document>
</kml>