<?xml version="1.0" encoding="utf-16"?>
<kml xmlns="http://www.opengis.net/kml/2.2">
  <Document>
    <Style id="Submitted">
      <IconStyle>
        <Icon></Icon>
      </IconStyle>
      <LabelStyle>
        <scale>0</scale>
      </LabelStyle>
      <LineStyle>
        <color>ff0000ff</color>
        <width>3</width>
      </LineStyle>
      <PolyStyle>
        <color>4800ff00</color>
      </PolyStyle>
    </Style>
    <Style id="Submitted_hlt">
      <IconStyle>
        <Icon></Icon>
      </IconStyle>
      <LineStyle>
        <color>ff0000ff</color>
        <width>4</width>
      </LineStyle>
      <PolyStyle>
        <color>4800ff00</color>
      </PolyStyle>
    </Style>
    <StyleMap id="Submitted_rollover">
      <Pair>
        <key>normal</key>
        <styleUrl>#Submitted</styleUrl>
      </Pair>
      <Pair>
        <key>highlight</key>
        <styleUrl>#Submitted_hlt</styleUrl>
      </Pair>
    </StyleMap>
    <name>90 - Property Surveys</name>
    <Folder>
      <name>2026</name>
      <description>Survey Parcels - 2026</description>
      <Placemark>
        <name>90-26-0001 - 3 Murmuring Creek Place</name>
        <styleUrl>#Submitted_rollover</styleUrl>
        <MultiGeometry>
          <Point>
            <coordinates>-95.44464628808444,30.22276542703442,0</coordinates>
          </Point>
          <Polygon>
            <outerBoundaryIs>
              <LinearRing>
                <coordinates>-95.4444688088633,30.22292014265088,0 -95.44487391253963,30.222827117882936,0 -95.44485885562128,30.222629893283823,0 -95.44485085588644,30.22263010580893,0 -95.44484285776943,30.222630360141594,0 -95.4448348615599,30.22263065627251,0 -95.4448268675475,30.22263099419103,0 -95.44481887602183,30.222631373884916,0 -95.4448108872723,30.222631795340394,0 -95.4448029015883,30.222632258542205,0 -95.44479491925912,30.22263276347356,0 -95.44478694057386,30.22263331011619,0 -95.44477896582153,30.222633898450297,0 -95.44477099529101,30.222634528454524,0 -95.444763029271,30.222635200106108,0 -95.44475506805003,30.222635913380678,0 -95.44474711191648,30.222636668252427,0 -95.44473916115857,30.22263746469398,0 -95.44473121606424,30.22263830267653,0 -95.44472327692131,30.222639182169694,0 -95.44471534401733,30.222640103141632,0 -95.44470741763968,30.222641065558985,0 -95.44469949807545,30.22264206938684,0 -95.4446915856115,30.222643114588884,0 -95.44468368053444,30.222644201127327,0 -95.4446757831306,30.222645328962663,0 -95.44466789368607,30.222646498054118,0 -95.4446600124866,30.222647708359375,0 -95.44465213981765,30.222648959834558,0 -95.44464427596441,30.222650252434338,0 -95.44463642121171,30.22265158611191,0 -95.44462857584406,30.222652960818905,0 -95.44462074014568,30.222654376505595,0 -95.44461291440035,30.222655833120694,0 -95.44460509889154,30.222657330611398,0 -95.44459729390236,30.222658868923496,0 -95.44458949971552,30.222660448001303,0 -95.44458171661331,30.222662067787567,0 -95.4445739448777,30.222663728223612,0 -95.44456618479018,30.222665429249314,0 -95.44455843663184,30.22266717080307,0 -95.44455070068331,30.22266895282178,0 -95.44454297722484,30.222670775240914,0 -95.44453526653618,30.22267263799445,0 -95.4445275688966,30.222674541014896,0 -95.44451988458498,30.222676484233332,0 -95.44451221387959,30.222678467579396,0 -95.44450455705834,30.2226804909812,0 -95.44449691439856,30.222682554365516,0 -95.44448928617706,30.222684657657556,0 -95.44448167267021,30.22268680078111,0 -95.44447407415373,30.222688983658614,0 -95.44446649090287,30.222691206210975,0 -95.44446649090287,30.222691206210975,0 -95.44446403899406,30.222691970584325,0 -95.44446161679478,30.222692803335395,0 -95.44445922683279,30.22269370359517,0 -95.44445687160217,30.222694670424115,0 -95.44445455356079,30.222695702813297,0 -95.44445227512766,30.22269679968532,0 -95.4444500386805,30.222697959895562,0 -95.44444784655322,30.222699182233228,0 -95.44444570103343,30.222700465422758,0 -95.44444360436016,30.222701808125,0 -95.44444155872142,30.222703208938807,0 -95.444439566252,30.2227046664023,0 -95.44443762903117,30.222706178994496,0 -95.44443574908058,30.222707745136944,0 -95.44443392836207,30.22270936319522,0 -95.44443216877572,30.222711031480763,0 -95.44443047215775,30.222712748252654,0 -95.44442884027875,30.222714511719268,0 -95.44442727484166,30.22271632004032,0 -95.44442577748016,30.22271817132866,0 -95.44442434975684,30.22272006365242,0 -95.44442299316165,30.22272199503677,0 -95.4444217091103,30.222723963466134,0 -95.44442049894279,30.22272596688638,0 -95.44441936392198,30.2227280032068,0 -95.44441830523242,30.222730070302326,0 -95.44441732397888,30.22273216601575,0 -95.44441642118542,30.222734288160122,0 -95.44441559779415,30.22273643452078,0 -95.44441485466432,30.222738602857856,0 -95.44441419257149,30.222740790908507,0 -95.44441361220656,30.222742996389428,0 -95.44441311417523,30.222745216998973,0 -95.44441269899723,30.222747450419785,0 -95.44441236710581,30.222749694321127,0 -95.44441211884734,30.22275194636131,0 -95.44441195448093,30.22275420419021,0 -95.44441187417807,30.222756465451617,0 -95.44441187802258,30.22275872778567,0 -95.44441196601046,30.222760988831535,0 -95.4444121380499,30.222763246229615,0 -95.44441239396137,30.222765497624163,0 -95.44441273347782,30.222767740665674,0 -95.44441315624492,30.222769973013346,0 -95.44441366182149,30.222772192337626,0 -95.44441424967995,30.222774396322432,0 -95.44441491920684,30.22277658266779,0 -95.44441566970343,30.22277874909201,0 -95.44441650038655,30.22278089333433,0 -95.44441741038932,30.222783013157105,0 -95.44441741038932,30.222783013157105,0 -95.4444688088633,30.22292014265088,0</coordinates>
              </LinearRing>
            </outerBoundaryIs>
          </Polygon>
        </MultiGeometry>
      </Placemark>
    </Folder>
  </Document>
</kml>
