<?xml version="1.0" encoding="utf-16"?>
<kml xmlns="http://www.opengis.net/kml/2.2">
  <Document>
    <name>NAME</name>
    <Style id="Submitted">
      <IconStyle>
        <Icon></Icon>
      </IconStyle>
      <LabelStyle>
        <scale>0</scale>
      </LabelStyle>
      <LineStyle>
        <color>ff0000ff</color>
        <width>3</width>
      </LineStyle>
      <PolyStyle>
        <color>4800ff00</color>
      </PolyStyle>
    </Style>
    <Style id="Submitted_hlt">
      <IconStyle>
        <Icon></Icon>
      </IconStyle>
      <LineStyle>
        <color>ff0000ff</color>
        <width>4</width>
      </LineStyle>
      <PolyStyle>
        <color>4800ff00</color>
      </PolyStyle>
    </Style>
    <StyleMap id="Submitted_rollover">
      <Pair>
        <key>normal</key>
        <styleUrl>#Submitted</styleUrl>
      </Pair>
      <Pair>
        <key>highlight</key>
        <styleUrl>#Submitted_hlt</styleUrl>
      </Pair>
    </StyleMap>
    <Folder>
      <name>PRIME</name>
    </Folder>
    <Folder>
      <name>2024</name>
    </Folder>
    <Folder>
      <name>2025</name>
    </Folder>
    <Folder>
      <name>2026</name>
    </Folder>
  </Document>
</kml>
