<?xml version="1.0" encoding="UTF-8"?>
<kml xmlns="http://www.opengis.net/kml/2.2" xmlns:gx="http://www.google.com/kml/ext/2.2" xmlns:kml="http://www.opengis.net/kml/2.2" xmlns:atom="http://www.w3.org/2005/Atom">
<Document>
	<name>TTR Projects</name>
	<open>1</open>
	<NetworkLink>
		<name>90-Property Surveys</name>
		<Link>
			<href>https://raw.githubusercontent.com/ttr-td3/TTR-Parcels/refs/heads/main/90-Propery%20Surveys.kml</href>
			<viewRefreshMode>onStop</viewRefreshMode>
			<viewRefreshTime>2</viewRefreshTime>
		</Link>
	</NetworkLink>
	<NetworkLink>
		<name>108-Decoste</name>
		<Link>
			<href>https://raw.githubusercontent.com/ttr-td3/TTR-Parcels/refs/heads/main/108-DECOSTE.kml?</href>
			<viewRefreshMode>onStop</viewRefreshMode>
			<viewRefreshTime>2</viewRefreshTime>
		</Link>
	</NetworkLink>
</Document>
</kml>
