<?xml version="1.0" encoding="utf-16"?>
<kml:kml xmlns="http://www.opengis.net/kml/2.2" xmlns:gx="http://www.google.com/kml/ext/2.2" xmlns:kml="http://www.opengis.net/kml/2.2" xmlns:atom="http://www.w3.org/2005/Atom">
  <kml:Document>
    <kml:name>East Texas Projects.kmz</kml:name>
    <atom:link rel="app" href="https://www.google.com/earth/about/versions/#earth-pro" title="Google Earth Pro 7.3.7.1155"></atom:link>
    <!-- Styles -->
    <kml:Style id="Submitted">
      <kml:IconStyle>
        <kml:Icon></kml:Icon>
      </kml:IconStyle>
      <kml:LabelStyle>
        <kml:scale>0</kml:scale>
      </kml:LabelStyle>
      <kml:LineStyle>
        <kml:color>ff0000ff</kml:color>
        <kml:width>2</kml:width>
      </kml:LineStyle>
      <kml:PolyStyle>
        <kml:color>4800ff00</kml:color>
      </kml:PolyStyle>
    </kml:Style>
    <kml:Style id="Submitted_hlt">
      <kml:IconStyle>
        <kml:Icon></kml:Icon>
      </kml:IconStyle>
      <kml:LineStyle>
        <kml:color>ff0000ff</kml:color>
        <kml:width>4</kml:width>
      </kml:LineStyle>
      <kml:PolyStyle>
        <kml:color>4800ff00</kml:color>
      </kml:PolyStyle>
    </kml:Style>
    <kml:StyleMap id="Submitted_rollover">
      <kml:Pair>
        <kml:key>normal</kml:key>
        <kml:styleUrl>#Submitted</kml:styleUrl>
      </kml:Pair>
      <kml:Pair>
        <kml:key>highlight</kml:key>
        <kml:styleUrl>#Submitted_hlt</kml:styleUrl>
      </kml:Pair>
    </kml:StyleMap>
    <!-- Main Folder -->
    <kml:open>1</kml:open>
     <kml:Placemark>
        <kml:name>108-24-0040 - REEDY ST</kml:name>
        <kml:styleUrl>#Submitted_rollover</kml:styleUrl>
        <kml:MultiGeometry>
          <kml:Point>
            <kml:coordinates>-94.67840146743256,31.59545234108224,0</kml:coordinates>
          </kml:Point>
          <kml:Polygon>
            <kml:outerBoundaryIs>
              <kml:LinearRing>
                <kml:coordinates>-94.67822080471377,31.595227827846387,0 -94.67865366606603,31.59528532881549,0 -94.67862276271221,31.595480421079134,0 -94.67861132438433,31.59547898731158,0 -94.67857745432414,31.59567694977179,0 -94.67815306300649,31.595623752574163,0 -94.67818693393059,31.59542579022134,0 -94.67822080471377,31.595227827846387,0</kml:coordinates>
              </kml:LinearRing>
            </kml:outerBoundaryIs>
          </kml:Polygon>
        </kml:MultiGeometry>
      </kml:Placemark>
      <kml:Placemark>
      <kml:name>108-24-0042 - 916 MOCKINGBIRD</kml:name>
      <kml:styleUrl>#Submitted_rollover</kml:styleUrl>
      <kml:MultiGeometry>
        <kml:Point>
          <kml:coordinates>-94.68236490876166,31.581817640723543,0</kml:coordinates>
        </kml:Point>
        <kml:Polygon>
          <kml:outerBoundaryIs>
            <kml:LinearRing>
              <kml:coordinates>-94.68201317304603,31.582071071757795,0 -94.68211560554977,31.58152571678997,0 -94.68274882083874,31.581621556679266,0 -94.68267516522705,31.581999900570345,0 -94.682205228403,31.582101936680047,0 -94.68201317304603,31.582071071757795,0</kml:coordinates>
            </kml:LinearRing>
          </kml:outerBoundaryIs>
        </kml:Polygon>
      </kml:MultiGeometry>
    </kml:Placemark>
      <kml:Placemark>
        <kml:name>108-24-0055 - 130 Rock Creek</kml:name>
        <kml:styleUrl>#Submitted_rollover</kml:styleUrl>
        <kml:MultiGeometry>
          <kml:Point>
            <kml:coordinates>-94.62900182842766,31.71922139747362,0</kml:coordinates>
          </kml:Point>
          <kml:Polygon>
            <kml:outerBoundaryIs>
              <kml:LinearRing>
                <kml:coordinates>
									-94.62855819485411,31.71910817206631,0 -94.6294476742117,31.71911471056872,0 -94.62944546305832,31.71933462136415,0 -94.62855598164265,31.71932808284642,0 -94.62855819485411,31.71910817206631,0 -94.62855819485411,31.71910817206631,0
								</kml:coordinates>
              </kml:LinearRing>
            </kml:outerBoundaryIs>
          </kml:Polygon>
        </kml:MultiGeometry>
      </kml:Placemark>
      <kml:Placemark>
        <kml:name>108-24-0061 - POWERS ST</kml:name>
        <kml:styleUrl>#Submitted_rollover</kml:styleUrl>
        <kml:MultiGeometry>
          <kml:Point>
            <kml:coordinates>-94.67191716416312,31.61032714719547,0</kml:coordinates>
          </kml:Point>
          <kml:Polygon>
            <kml:outerBoundaryIs>
              <kml:LinearRing>
                <kml:coordinates>
								-94.67217488747519,31.61018012686565,0 -94.67171110640841,31.61019852405848,0 -94.67172406667868,31.61050640564919,0 -94.67218136785958,31.6104873948433,0 -94.67217488747519,31.61018012686565,0
							</kml:coordinates>
              </kml:LinearRing>
            </kml:outerBoundaryIs>
          </kml:Polygon>
          <kml:Polygon>
            <kml:tessellate>1</kml:tessellate>
            <kml:outerBoundaryIs>
              <kml:LinearRing>
                <kml:coordinates>
								-94.67148020236044,31.61020050078471,0 -94.67091829124065,31.61022414316368,0 -94.67092886490553,31.61055180392039,0 -94.67148945585554,31.61052590934743,0 -94.67148020236044,31.61020050078471,0
							</kml:coordinates>
              </kml:LinearRing>
            </kml:outerBoundaryIs>
          </kml:Polygon>
        </kml:MultiGeometry>
      </kml:Placemark>
      <kml:Placemark>
        <kml:name>108-24-0063 - WADE AND DOLPH  REPLAT</kml:name>
        <kml:styleUrl>#Submitted_rollover</kml:styleUrl>
        <kml:MultiGeometry>
          <kml:Point>
            <kml:coordinates>-94.67126451509272,31.61209481052827,0</kml:coordinates>
          </kml:Point>
          <kml:Polygon>
            <kml:outerBoundaryIs>
              <kml:LinearRing>
                <kml:coordinates>
						-94.67170077683798,31.61339647704396,0 -94.67121480011032,31.61340767361178,0 -94.67121355262002,31.61298421386808,0 -94.67090666113324,31.6129890207115,0 -94.67089839823487,31.61151698111938,0 -94.67156861377535,31.61148553249576,0 -94.67156548681034,31.61094910782684,0 -94.67168124044936,31.61094034589997,0 -94.67169320988826,31.61254622186704,0 -94.67170077683798,31.61339647704396,0
					</kml:coordinates>
              </kml:LinearRing>
            </kml:outerBoundaryIs>
          </kml:Polygon>
        </kml:MultiGeometry>
      </kml:Placemark>
  </kml:Document>
</kml:kml>
